{
    "links": {
        "self": "http://www.neowsapp.com/rest/v1/neo/54016987?api_key=iIulBulltgU6a56xZRHN4H3l9WmuAYTsLGpBGhQ2"
    },
    "id": "54016987",
    "neo_reference_id": "54016987",
    "name": "(2020 JZ)",
    "designation": "2020 JZ",
    "nasa_jpl_url": "http://ssd.jpl.nasa.gov/sbdb.cgi?sstr=54016987",
    "absolute_magnitude_h": 22.845,
    "estimated_diameter": {
        "kilometers": {
            "estimated_diameter_min": 0.0717059141,
            "estimated_diameter_max": 0.1603392983
        },
        "meters": {
            "estimated_diameter_min": 71.7059141144,
            "estimated_diameter_max": 160.3392983485
        },
        "miles": {
            "estimated_diameter_min": 0.0445559756,
            "estimated_diameter_max": 0.0996301902
        },
        "feet": {
            "estimated_diameter_min": 235.255631263,
            "estimated_diameter_max": 526.0475835938
        }
    },
    "is_potentially_hazardous_asteroid": false,
    "close_approach_data": [
        {
            "close_approach_date": "2016-09-25",
            "close_approach_date_full": "2016-Sep-25 16:55",
            "epoch_date_close_approach": 1474822500000,
            "relative_velocity": {
                "kilometers_per_second": "14.867546376",
                "kilometers_per_hour": "53523.16695365",
                "miles_per_hour": "33257.2144885055"
            },
            "miss_distance": {
                "astronomical": "0.3914933701",
                "lunar": "152.2909209689",
                "kilometers": "58566574.286081687",
                "miles": "36391581.7613018006"
            },
            "orbiting_body": "Earth"
        },
        {
            "close_approach_date": "2020-06-01",
            "close_approach_date_full": "2020-Jun-01 10:05",
            "epoch_date_close_approach": 1591005900000,
            "relative_velocity": {
                "kilometers_per_second": "16.2767742975",
                "kilometers_per_hour": "58596.3874711177",
                "miles_per_hour": "36409.5164261509"
            },
            "miss_distance": {
                "astronomical": "0.1912485132",
                "lunar": "74.3956716348",
                "kilometers": "28610370.215386884",
                "miles": "17777659.6908076392"
            },
            "orbiting_body": "Earth"
        },
        {
            "close_approach_date": "2024-05-18",
            "close_approach_date_full": "2024-May-18 19:54",
            "epoch_date_close_approach": 1716062040000,
            "relative_velocity": {
                "kilometers_per_second": "23.0054249394",
                "kilometers_per_hour": "82819.5297818256",
                "miles_per_hour": "51460.8350469349"
            },
            "miss_distance": {
                "astronomical": "0.2864897019",
                "lunar": "111.4444940391",
                "kilometers": "42858249.181174953",
                "miles": "26630881.1508142314"
            },
            "orbiting_body": "Earth"
        }
    ],
    "orbital_data": {
        "orbit_id": "6",
        "orbit_determination_date": "2020-05-30 06:46:55",
        "first_observation_date": "2020-05-12",
        "last_observation_date": "2020-05-29",
        "data_arc_in_days": 17,
        "observations_used": 38,
        "orbit_uncertainty": "7",
        "minimum_orbit_intersection": ".167617",
        "jupiter_tisserand_invariant": "3.073",
        "epoch_osculation": "2459000.5",
        "eccentricity": ".6200045686786854",
        "semi_major_axis": "2.498012589333002",
        "inclination": "24.46005993358696",
        "ascending_node_longitude": "52.69656658947773",
        "orbital_period": "1442.083344787414",
        "perihelion_distance": ".9492333713296679",
        "perihelion_argument": "250.155592388079",
        "aphelion_distance": "4.046791807336335",
        "perihelion_time": "2459048.264648108443",
        "mean_anomaly": "348.0760890962414",
        "mean_motion": ".2496388307244959",
        "equinox": "J2000",
        "orbit_class": {
            "orbit_class_type": "APO",
            "orbit_class_description": "Near-Earth asteroid orbits which cross the Earth’s orbit similar to that of 1862 Apollo",
            "orbit_class_range": "a (semi-major axis) > 1.0 AU; q (perihelion) < 1.017 AU"
        }
    },
    "is_sentry_object": false
}